LEMUR-1                 
1 40044U 14033AL  26178.39933060  .00001914  00000+0  22447-3 0  9996
2 40044  97.7885 327.9779 0049200  45.9436 314.5815 14.85282464646982
LEMUR-2-GREENBERG       
1 42837U 17042N   26178.47591377  .00016095  00000+0  52845-3 0  9992
2 42837  97.3816 359.0552 0007577 334.8816  25.2056 15.31635576489966
LEMUR-2-ANDIS           
1 42838U 17042P   26178.48137580  .00022934  00000+0  67072-3 0  9993
2 42838  97.3672 359.2807 0007419 332.3101  27.7747 15.35248704490038
LEMUR-2-MONSON          
1 42839U 17042Q   26178.44160542  .00017190  00000+0  62531-3 0  9997
2 42839  97.4078 358.9775 0005403 325.2928  34.7959 15.28298019489733
LEMUR-2-FURIAUS         
1 42840U 17042R   26178.47687706  .00017246  00000+0  58473-3 0  9990
2 42840  97.3764 356.9881 0007459  35.9506 324.2236 15.30581225489789
LEMUR-2-PETERG          
1 42841U 17042S   26178.47192485  .00025040  00000+0  75447-3 0  9997
2 42841  97.3987   3.5214 0002728 308.0048  52.0948 15.34313191490014
LEMUR-2-DEMBITZ         
1 42842U 17042T   26178.49654316  .00015431  00000+0  52355-3 0  9992
2 42842  97.3820   0.0392 0005797 351.8421   8.2724 15.30594751489922
LEMUR-2-ZACHARY         
1 42845U 17042W   26178.51489431  .00044411  00000+0  75925-3 0  9990
2 42845  97.3587  10.3765 0002268 341.8647  18.2524 15.51154678490803
LEMUR-2-AMANDA-SVANTE   
1 48269U 21034B   26178.46450882  .00036078  00000+0  10643-2 0  9999
2 48269  97.5767 257.0241 0003380 181.1347 178.9888 15.34904357282633
LEMUR-2-SPECIAL-K       
1 48273U 21034F   26178.50180431  .00174107  00000+0  15692-2 0  9994
2 48273  97.5653 266.1275 0005131 221.5472 138.5399 15.67617584283307
LEMUR-2-EMBRIONOVIS     
1 56970U 23084AQ  26178.35353745  .00014666  00000+0  39662-3 0  9994
2 56970  97.6293 322.9449 0007435 278.0214  82.0186 15.37798456169243
LEMUR-2-DEVERILL-M-T    
1 57391U 23100F   26178.37103149  .00026514  00000+0  66024-3 0  9991
2 57391  99.4470 220.0725 0005372  13.5467 346.5916 15.40243250162819
LEMUR-2-BASS            
1 58259U 23174D   26178.19576296  .00019636  00000+0  44024-3 0  9996
2 58259  97.3854 263.0492 0008080 131.9313 228.2625 15.43421800146905
LEMUR-2-JK0903EM1407    
1 58336U 23174CJ  26178.20248433  .00029893  00000+0  49390-3 0  9990
2 58336  97.3932 268.9571 0005067  90.3801 269.8033 15.52184890147283
LEMUR-2-MJR092620       
1 58340U 23174CN  26178.52121116  .00019181  00000+0  40457-3 0  9992
2 58340  97.3984 268.7422 0006786  86.9806 273.2219 15.45246357147243
LEMUR-2-NIMBUS2000      
1 58899U 24022A   26178.53893740  .00021647  00000+0  53570-3 0  9994
2 58899  97.4102  28.6725 0010212  84.6893 275.5518 15.40405484133867
LEMUR-2-VALHALLA        
1 58900U 24022B   26178.53762595  .00015660  00000+0  39384-3 0  9995
2 58900  97.4102  28.6557 0010729  80.7087 279.5371 15.39977248133869
LEMUR-2-CAEL            
1 58903U 24022E   26178.53863841  .00016763  00000+0  40368-3 0  9993
2 58903  97.4081  29.6108 0008889  67.1397 293.0787 15.41301050133933
LEMUR-2-JOHNNYTRUONG    
1 59146U 24043BA  26178.40786826  .00044097  00000+0  52016-3 0  9993
2 59146  97.5374 330.7493 0004810 146.0003 214.1563 15.61224919129631
LEMUR-2-TOMATOKECHUP    
1 60471U 24149D   26178.52989515  .00010671  00000+0  30431-3 0  9994
2 60471  97.3805 260.6035 0002321 156.0649 204.0703 15.36239523103754
LEMUR-2-STELLA          
1 60533U 24149BT  26178.53875535  .00010426  00000+0  61036-3 0  9993
2 60533  97.6742 261.0396 0001373  99.0541 261.0845 15.12019407102068
LEMUR-2-MARHISYAM       
1 60536U 24149BW  26178.19185744  .00011290  00000+0  67100-3 0  9992
2 60536  97.6883 261.1503 0003184 100.0512 260.1077 15.11447359101999
LEMUR-2-AHMED-ASRAR     
1 60576U 24149DN  26178.21631433  .00012159  00000+0  69329-3 0  9990
2 60576  97.7011 263.3065 0000889  16.1028 344.0231 15.12930741102080
LEMUR-2-LLOYD           
1 60577U 24149DP  26178.18566158  .00011352  00000+0  71308-3 0  9992
2 60577  97.6747 259.3202 0005015 115.7212 244.4535 15.09422988101906
LEMUR-2-SQUIRRELCOMM    
1 60578U 24149DQ  26178.47944149  .00006307  00000+0  42217-3 0  9996
2 60578  97.6718 259.3585 0005804  33.7860 326.3736 15.07266628101956
LEMUR-2-SIERRINI        
1 60579U 24149DR  26178.48229309  .00011903  00000+0  71257-3 0  9996
2 60579  97.6848 261.1205 0006522 135.7830 224.3922 15.11158827102017
LEMUR-2-WILSON          
1 62694U 25009CP  26178.46803560  .00002116  00000+0  19765-3 0  9999
2 62694  97.7026 256.7522 0003432  27.9587 332.1817 14.95207257 78898
LEMUR-2-STAR-FOX        
1 62696U 25009CR  26178.48151980  .00005988  00000+0  45381-3 0  9998
2 62696  97.6954 260.0161 0004325  90.9219 269.2502 15.02626206 79104
LEMUR-2-ARIANNA         
1 62699U 25009CU  26178.47997150  .00008143  00000+0  61531-3 0  9998
2 62699  97.6897 259.7811 0004725  95.2865 264.8899 15.02625781 79106
LEMUR-2-ALISIA          
1 62706U 25009DB  26178.18964283  .00008927  00000+0  66923-3 0  9996
2 62706  97.6937 260.2900 0002798 182.1274 177.9940 15.02904295101662
